COMMENT,ORIGINATOR,NORAD_CAT_ID,OBJECT_NAME,OBJECT_TYPE,CLASSIFICATION_TYPE,INTLDES,EPOCH,EPOCH_MICROSECONDS,MEAN_MOTION,ECCENTRICITY,INCLINATION,RA_OF_ASC_NODE,ARG_OF_PERICENTER,MEAN_ANOMALY,EPHEMERIS_TYPE,ELEMENT_SET_NO,REV_AT_EPOCH,BSTAR,MEAN_MOTION_DOT,MEAN_MOTION_DDOT,FILE,TLE_LINE0,TLE_LINE1,TLE_LINE2,OBJECT_ID,OBJECT_NUMBER,SEMIMAJOR_AXIS,PERIOD,APOGEE,PERIGEE,DECAYED,date
GENERATED VIA SPACETRACK.ORG API,18 SPCS,48894,SPACEBEE-107,PAYLOAD,U,21059R,2023/3/14 15:58,83520,15.25927537,0.0008316,97.5828,209.245,244.1197,115.9184,0,999,9497,0.001851,0.00047718,0,3860479,0 SPACEBEE-107,1 48894U 21059R   23073.66583430  .00047718  00000-0  18510-2 0  9994,2 48894  97.5828 209.2450 0008316 244.1197 115.9184 15.25927537 94976,2021-059R,48894,6866.139,94.369,493.714,482.294,0,
GENERATED VIA SPACETRACK.ORG API,18 SPCS,48894,SPACEBEE-107,PAYLOAD,U,21059R,2023/3/14 15:58,83520,15.25927537,0.0008316,97.5828,209.245,244.1197,115.9184,0,999,9497,0.001851,0.00047718,0,3860643,0 SPACEBEE-107,1 48894U 21059R   23073.66583430  .00047718  00000-0  18510-2 0  9994,2 48894  97.5828 209.2450 0008316 244.1197 115.9184 15.25927537 94976,2021-059R,48894,6866.139,94.369,493.714,482.294,0,
GENERATED VIA SPACETRACK.ORG API,18 SPCS,48894,SPACEBEE-107,PAYLOAD,U,21059R,2023/3/15 7:43,342656,15.25996223,0.0008304,97.5829,209.9103,242.3579,117.6816,0,999,9507,0.0019918,0.00051485,0,3861350,0 SPACEBEE-107,1 48894U 21059R   23074.32157804  .00051485  00000-0  19918-2 0  9999,2 48894  97.5829 209.9103 0008304 242.3579 117.6816 15.25996223 95071,2021-059R,48894,6865.933,94.365,493.499,482.096,0,
GENERATED VIA SPACETRACK.ORG API,18 SPCS,48894,SPACEBEE-107,PAYLOAD,U,21059R,2023/3/15 20:18,532800,15.26047634,0.0008277,97.583,210.4424,239.9207,120.121,0,999,9515,0.0017897,0.00046293,0,3861459,0 SPACEBEE-107,1 48894U 21059R   23074.84615200  .00046293  00000-0  17897-2 0  9990,2 48894  97.5830 210.4424 0008277 239.9207 120.1210 15.26047634 95155,2021-059R,48894,6865.778,94.361,493.326,481.961,0,
GENERATED VIA SPACETRACK.ORG API,18 SPCS,48894,SPACEBEE-107,PAYLOAD,U,21059R,2023/3/15 21:52,824864,15.26054007,0.0008272,97.583,210.509,239.7937,120.2482,0,999,9516,0.0017877,0.0004625,0,3861599,0 SPACEBEE-107,1 48894U 21059R   23074.91172251  .00046250  00000-0  17877-2 0  9993,2 48894  97.5830 210.5090 0008272 239.7937 120.2482 15.26054007 95163,2021-059R,48894,6865.759,94.361,493.304,481.945,0,
GENERATED VIA SPACETRACK.ORG API,18 SPCS,48894,SPACEBEE-107,PAYLOAD,U,21059R,2023/3/16 8:53,147872,15.26103987,0.0008251,97.5828,210.9748,237.6769,122.3671,0,999,9523,0.0019763,0.00051248,0,3862295,0 SPACEBEE-107,1 48894U 21059R   23075.37070773  .00051248  00000-0  19763-2 0  9999,2 48894  97.5828 210.9748 0008251 237.6769 122.3671 15.26103987 95234,2021-059R,48894,6865.609,94.358,493.139,481.81,0,
GENERATED VIA SPACETRACK.ORG API,18 SPCS,48894,SPACEBEE-107,PAYLOAD,U,21059R,2023/3/16 19:54,507520,15.26134131,0.0008238,97.5829,211.4405,236.0181,124.0274,0,999,9530,0.0013999,0.00036239,0,3862592,0 SPACEBEE-107,1 48894U 21059R   23075.82968180  .00036239  00000-0  13999-2 0  9995,2 48894  97.5829 211.4405 0008238 236.0181 124.0274 15.26134131 95308,2021-059R,48894,6865.519,94.356,493.04,481.728,0,
GENERATED VIA SPACETRACK.ORG API,18 SPCS,48894,SPACEBEE-107,PAYLOAD,U,21059R,2023/3/16 21:29,487680,15.26138667,0.0008247,97.5829,211.507,235.8277,124.218,0,999,9531,0.0013755,0.00035608,0,3862751,0 SPACEBEE-107,1 48894U 21059R   23075.89524870  .00035608  00000-0  13755-2 0  9995,2 48894  97.5829 211.5070 0008247 235.8277 124.2180 15.26138667 95317,2021-059R,48894,6865.505,94.356,493.032,481.708,0,
GENERATED VIA SPACETRACK.ORG API,18 SPCS,48894,SPACEBEE-107,PAYLOAD,U,21059R,2023/3/17 14:47,107360,15.26190339,0.0008315,97.5829,212.239,233.4918,126.5555,0,999,9542,0.0013919,0.00036093,0,3863278,0 SPACEBEE-107,1 48894U 21059R   23076.61647115  .00036093  00000-0  13919-2 0  9995,2 48894  97.5829 212.2390 0008315 233.4918 126.5555 15.26190339 95429,2021-059R,48894,6865.35,94.353,492.924,481.507,0,
GENERATED VIA SPACETRACK.ORG API,18 SPCS,48894,SPACEBEE-107,PAYLOAD,U,21059R,2023/3/17 21:05,72416,15.26210079,0.0008308,97.5827,212.5052,232.6528,127.3953,0,999,9546,0.0013642,0.0003539,0,3863544,0 SPACEBEE-107,1 48894U 21059R   23076.87872769  .00035390  00000-0  13642-2 0  9990,2 48894  97.5827 212.5052 0008308 232.6528 127.3953 15.26210079 95464,2021-059R,48894,6865.291,94.351,492.86,481.453,0,
GENERATED VIA SPACETRACK.ORG API,18 SPCS,48894,SPACEBEE-107,PAYLOAD,U,21059R,2023/3/17 22:39,779552,15.26213898,0.0008309,97.5827,212.5717,232.4153,127.6331,0,999,9547,0.0013427,0.00034833,0,3863639,0 SPACEBEE-107,1 48894U 21059R   23076.94429143  .00034833  00000-0  13427-2 0  9994,2 48894  97.5827 212.5717 0008309 232.4153 127.6331 15.26213898 95471,2021-059R,48894,6865.28,94.351,492.849,481.44,0,
GENERATED VIA SPACETRACK.ORG API,18 SPCS,48894,SPACEBEE-107,PAYLOAD,U,21059R,2023/3/18 22:15,217088,15.26283942,0.0008347,97.5829,213.57,229.8173,130.2334,0,999,9562,0.0013064,0.00033957,0,3864479,0 SPACEBEE-107,1 48894U 21059R   23077.92772242  .00033957  00000-0  13064-2 0  9997,2 48894  97.5829 213.5700 0008347 229.8173 130.2334 15.26283942 95627,2021-059R,48894,6865.07,94.347,492.665,481.204,0,
GENERATED VIA SPACETRACK.ORG API,18 SPCS,48894,SPACEBEE-107,PAYLOAD,U,21059R,2023/3/19 7:42,451968,15.26313832,0.0008338,97.583,213.9692,228.4438,131.6085,0,999,9568,0.0013446,0.00034988,0,3864868,0 SPACEBEE-107,1 48894U 21059R   23078.32108162  .00034988  00000-0  13446-2 0  9995,2 48894  97.5830 213.9692 0008338 228.4438 131.6085 15.26313832 95688,2021-059R,48894,6864.98,94.345,492.569,481.121,0,
GENERATED VIA SPACETRACK.ORG API,18 SPCS,48894,SPACEBEE-107,PAYLOAD,U,21059R,2023/3/19 7:42,451968,15.26313832,0.0008338,97.583,213.9692,228.4438,131.6085,0,999,9568,0.0013446,0.00034988,0,3865049,0 SPACEBEE-107,1 48894U 21059R   23078.32108162  .00034988  00000-0  13446-2 0  9995,2 48894  97.5830 213.9692 0008338 228.4438 131.6085 15.26313832 95688,2021-059R,48894,6864.98,94.345,492.569,481.121,0,
GENERATED VIA SPACETRACK.ORG API,18 SPCS,48894,SPACEBEE-107,PAYLOAD,U,21059R,2023/3/19 20:17,370528,15.26355459,0.0008305,97.5834,214.5015,226.3747,133.6803,0,999,9576,0.0013769,0.0003588,0,3865354,0 SPACEBEE-107,1 48894U 21059R   23078.84554827  .00035880  00000-0  13769-2 0  9995,2 48894  97.5834 214.5015 0008305 226.3747 133.6803 15.26355459 95762,2021-059R,48894,6864.855,94.342,492.422,481.019,0,
GENERATED VIA SPACETRACK.ORG API,18 SPCS,48894,SPACEBEE-107,PAYLOAD,U,21059R,2023/3/20 8:52,68256,15.26396875,0.0008274,97.5838,215.0335,225.2416,134.815,0,999,9584,0.0014279,0.00037265,0,3865742,0 SPACEBEE-107,1 48894U 21059R   23079.37000079  .00037265  00000-0  14279-2 0  9995,2 48894  97.5838 215.0335 0008274 225.2416 134.8150 15.26396875 95847,2021-059R,48894,6864.731,94.34,492.276,480.916,0,
GENERATED VIA SPACETRACK.ORG API,18 SPCS,48894,SPACEBEE-107,PAYLOAD,U,21059R,2023/3/20 8:52,68256,15.26396875,0.0008274,97.5838,215.0335,225.2416,134.815,0,999,9584,0.0014279,0.00037265,0,3865912,0 SPACEBEE-107,1 48894U 21059R   23079.37000079  .00037265  00000-0  14279-2 0  9995,2 48894  97.5838 215.0335 0008274 225.2416 134.8150 15.26396875 95847,2021-059R,48894,6864.731,94.34,492.276,480.916,0,
GENERATED VIA SPACETRACK.ORG API,18 SPCS,48894,SPACEBEE-107,PAYLOAD,U,21059R,2023/3/21 8:28,971904,15.26478209,0.0008292,97.5842,216.0319,221.5392,138.5217,0,999,9599,0.0015184,0.00039742,0,3866730,0 SPACEBEE-107,1 48894U 21059R   23080.35330986  .00039742  00000-0  15184-2 0  9996,2 48894  97.5842 216.0319 0008292 221.5392 138.5217 15.26478209 95990,2021-059R,48894,6864.487,94.335,492.044,480.66,0,
GENERATED VIA SPACETRACK.ORG API,18 SPCS,48894,SPACEBEE-107,PAYLOAD,U,21059R,2023/3/21 16:20,273472,15.26503604,0.0008301,97.5842,216.3648,220.1604,139.9021,0,999,9604,0.0014457,0.00037855,0,3866817,0 SPACEBEE-107,1 48894U 21059R   23080.68106798  .00037855  00000-0  14457-2 0  9999,2 48894  97.5842 216.3648 0008301 220.1604 139.9021 15.26503604 96043,2021-059R,48894,6864.411,94.333,491.974,480.578,0,
GENERATED VIA SPACETRACK.ORG API,18 SPCS,48894,SPACEBEE-107,PAYLOAD,U,21059R,2023/3/21 16:20,273472,15.26503604,0.0008301,97.5842,216.3648,220.1604,139.9021,0,999,9604,0.0014457,0.00037855,0,3866953,0 SPACEBEE-107,1 48894U 21059R   23080.68106798  .00037855  00000-0  14457-2 0  9999,2 48894  97.5842 216.3648 0008301 220.1604 139.9021 15.26503604 96043,2021-059R,48894,6864.411,94.333,491.974,480.578,0,
GENERATED VIA SPACETRACK.ORG API,18 SPCS,48894,SPACEBEE-107,PAYLOAD,U,21059R,2023/3/22 15:56,145536,15.26590822,0.0008304,97.5847,217.3627,217.2423,142.824,0,999,9619,0.0017363,0.00045646,0,3867765,0 SPACEBEE-107,1 48894U 21059R   23081.66430724  .00045646  00000-0  17363-2 0  9993,2 48894  97.5847 217.3627 0008304 217.2423 142.8240 15.26590822 96195,2021-059R,48894,6864.15,94.328,491.715,480.315,0,
GENERATED VIA SPACETRACK.ORG API,18 SPCS,48894,SPACEBEE-107,PAYLOAD,U,21059R,2023/3/22 20:39,916704,15.26608385,0.0008274,97.5848,217.5625,216.7768,143.2904,0,999,9622,0.0016466,0.00043293,0,3868201,0 SPACEBEE-107,1 48894U 21059R   23081.86094811  .00043293  00000-0  16466-2 0  9997,2 48894  97.5848 217.5625 0008274 216.7768 143.2904 15.26608385 96228,2021-059R,48894,6864.097,94.327,491.641,480.283,0,
GENERATED VIA SPACETRACK.ORG API,18 SPCS,48894,SPACEBEE-107,PAYLOAD,U,21059R,2023/3/23 7:40,48512,15.26643667,0.0008255,97.585,218.0284,215.2474,144.822,0,999,9629,0.0014245,0.00037454,0,3868494,0 SPACEBEE-107,1 48894U 21059R   23082.31976908  .00037454  00000-0  14245-2 0  9999,2 48894  97.5850 218.0284 0008255 215.2474 144.8220 15.26643667 96292,2021-059R,48894,6863.991,94.325,491.522,480.19,0,
